STARLINK-3692           
1 51958U 22025C   26068.17329645 -.00000339  00000+0  66883-6 0  9990
2 51958  53.1631  15.9414 0001402  86.2996 273.8165 15.30182510221092
HAWK-11B                
1 62379U 24247C   26068.44730104  .00009093  00000+0  32842-3 0  9993
2 62379  45.0161 115.7610 0004690 333.0326  27.0314 15.28847070 67738
